{"type": "FeatureCollection", "features": [ {"type": "Feature", "properties": {"norad_id": 67090, "name": "STARLINK-36060", "group": "last-30-days", "lat": -5.459296091590986, "lon": -144.73890897365794, "alt_km": 320.7381941078038, "timestamp": "2025-12-24T05:51:18.329175+00:00", "meta": {"OBJECT_NAME": "STARLINK-36060", "OBJECT_ID": "2025-298R", "EPOCH": "2025-12-23T22:00:01.999584", "MEAN_MOTION": 15.85670161, "ECCENTRICITY": 0.00038465, "INCLINATION": 69.9961, "RA_OF_ASC_NODE": 218.197, "ARG_OF_PERICENTER": 271.3629, "MEAN_ANOMALY": 16.0096, "EPHEMERIS_TYPE": 0, "CLASSIFICATION_TYPE": "U", "NORAD_CAT_ID": 67090, "ELEMENT_SET_NO": 999, "REV_AT_EPOCH": 271, "BSTAR": -0.0080397873, "MEAN_MOTION_DOT": -0.01698822, "MEAN_MOTION_DDOT": 0}, "tle": {"line1": "1 67090U 25298R   25357.91668981 -.01698822  00000+0 -80398-2 0  9995", "line2": "2 67090  69.9961 218.1970 0003846 271.3629  16.0096 15.85670161  2715"}}, "geometry": {"type": "Point", "coordinates": [-144.73890897365794, -5.459296091590986]}}, {"type": "Feature", "properties": {"norad_id": 67091, "name": "STARLINK-36097", "group": "last-30-days", "lat": -3.4333853643508307, "lon": -143.99846191943794, "alt_km": 320.7345726473277, "timestamp": "2025-12-24T05:51:18.329187+00:00", "meta": {"OBJECT_NAME": "STARLINK-36097", "OBJECT_ID": "2025-298S", "EPOCH": "2025-12-23T22:00:01.999584", "MEAN_MOTION": 15.85653657, "ECCENTRICITY": 0.00036884, "INCLINATION": 69.9962, "RA_OF_ASC_NODE": 218.1945, "ARG_OF_PERICENTER": 268.9718, "MEAN_ANOMALY": 20.5761, "EPHEMERIS_TYPE": 0, "CLASSIFICATION_TYPE": "U", "NORAD_CAT_ID": 67091, "ELEMENT_SET_NO": 999, "REV_AT_EPOCH": 277, "BSTAR": -0.0080175524, "MEAN_MOTION_DOT": -0.01693366, "MEAN_MOTION_DDOT": 0}, "tle": {"line1": "1 67091U 25298S   25357.91668981 -.01693366  00000+0 -80176-2 0  9998", "line2": "2 67091  69.9962 218.1945 0003688 268.9718  20.5761 15.85653657  2770"}}, "geometry": {"type": "Point", "coordinates": [-143.99846191943794, -3.4333853643508307]}}, {"type": "Feature", "properties": {"norad_id": 67092, "name": "STARLINK-35792", "group": "last-30-days", "lat": -1.6862874502536196, "lon": -143.36276649172916, "alt_km": 320.4717754471412, "timestamp": "2025-12-24T05:51:18.329204+00:00", "meta": {"OBJECT_NAME": "STARLINK-35792", "OBJECT_ID": "2025-298T", "EPOCH": "2025-12-23T22:00:01.999584", "MEAN_MOTION": 15.85659778, "ECCENTRICITY": 0.00038217, "INCLINATION": 69.9962, "RA_OF_ASC_NODE": 218.1923, "ARG_OF_PERICENTER": 271.3787, "MEAN_ANOMALY": 20.0219, "EPHEMERIS_TYPE": 0, "CLASSIFICATION_TYPE": "U", "NORAD_CAT_ID": 67092, "ELEMENT_SET_NO": 999, "REV_AT_EPOCH": 271, "BSTAR": -0.0080369687, "MEAN_MOTION_DOT": -0.01697528, "MEAN_MOTION_DDOT": 0}, "tle": {"line1": "1 67092U 25298T   25357.91668981 -.01697528  00000+0 -80370-2 0  9999", "line2": "2 67092  69.9962 218.1923 0003821 271.3787  20.0219 15.85659778  2717"}}, "geometry": {"type": "Point", "coordinates": [-143.36276649172916, -1.6862874502536196]}}, {"type": "Feature", "properties": {"norad_id": 67093, "name": "STARLINK-35784", "group": "last-30-days", "lat": 0.18340011443732468, "lon": -142.6839236424213, "alt_km": 320.4142762173242, "timestamp": "2025-12-24T05:51:18.329216+00:00", "meta": {"OBJECT_NAME": "STARLINK-35784", "OBJECT_ID": "2025-298U", "EPOCH": "2025-12-23T22:00:01.999584", "MEAN_MOTION": 15.8565473, "ECCENTRICITY": 0.0003804, "INCLINATION": 69.9961, "RA_OF_ASC_NODE": 218.1898, "ARG_OF_PERICENTER": 269.3702, "MEAN_ANOMALY": 24.0243, "EPHEMERIS_TYPE": 0, "CLASSIFICATION_TYPE": "U", "NORAD_CAT_ID": 67093, "ELEMENT_SET_NO": 999, "REV_AT_EPOCH": 277, "BSTAR": -0.008019369, "MEAN_MOTION_DOT": -0.0169392, "MEAN_MOTION_DDOT": 0}, "tle": {"line1": "1 67093U 25298U   25357.91668981 -.01693920  00000+0 -80194-2 0  9996", "line2": "2 67093  69.9961 218.1898 0003804 269.3702  24.0243 15.85654730  2773"}}, "geometry": {"type": "Point", "coordinates": [-142.6839236424213, 0.18340011443732468]}}, {"type": "Feature", "properties": {"norad_id": 67094, "name": "STARLINK-36202", "group": "last-30-days", "lat": 2.24240648592592, "lon": -141.9358459601935, "alt_km": 320.179390857058, "timestamp": "2025-12-24T05:51:18.329226+00:00", "meta": {"OBJECT_NAME": "STARLINK-36202", "OBJECT_ID": "2025-298V", "EPOCH": "2025-12-23T22:00:01.999584", "MEAN_MOTION": 15.85653581, "ECCENTRICITY": 0.00039405, "INCLINATION": 69.996, "RA_OF_ASC_NODE": 218.1873, "ARG_OF_PERICENTER": 270.9329, "MEAN_ANOMALY": 24.6548, "EPHEMERIS_TYPE": 0, "CLASSIFICATION_TYPE": "U", "NORAD_CAT_ID": 67094, "ELEMENT_SET_NO": 999, "REV_AT_EPOCH": 277, "BSTAR": -0.0080479102, "MEAN_MOTION_DOT": -0.01699235, "MEAN_MOTION_DDOT": 0}, "tle": {"line1": "1 67094U 25298V   25357.91668981 -.01699235  00000+0 -80479-2 0  9998", "line2": "2 67094  69.9960 218.1873 0003940 270.9329  24.6548 15.85653581  2777"}}, "geometry": {"type": "Point", "coordinates": [-141.9358459601935, 2.24240648592592]}}, {"type": "Feature", "properties": {"norad_id": 67095, "name": "STARLINK-36227", "group": "last-30-days", "lat": 4.181721314817522, "lon": -141.22955394583192, "alt_km": 319.9123591497482, "timestamp": "2025-12-24T05:51:18.329235+00:00", "meta": {"OBJECT_NAME": "STARLINK-36227", "OBJECT_ID": "2025-298W", "EPOCH": "2025-12-23T22:00:01.999584", "MEAN_MOTION": 15.85645802, "ECCENTRICITY": 0.00037872, "INCLINATION": 69.9958, "RA_OF_ASC_NODE": 218.1846, "ARG_OF_PERICENTER": 273.3367, "MEAN_ANOMALY": 24.3264, "EPHEMERIS_TYPE": 0, "CLASSIFICATION_TYPE": "U", "NORAD_CAT_ID": 67095, "ELEMENT_SET_NO": 999, "REV_AT_EPOCH": 271, "BSTAR": -0.0080590762, "MEAN_MOTION_DOT": -0.01700524, "MEAN_MOTION_DDOT": 0}, "tle": {"line1": "1 67095U 25298W   25357.91668981 -.01700524  00000+0 -80591-2 0  9998", "line2": "2 67095  69.9958 218.1846 0003787 273.3367  24.3264 15.85645802  2716"}}, "geometry": {"type": "Point", "coordinates": [-141.22955394583192, 4.181721314817522]}}, {"type": "Feature", "properties": {"norad_id": 67096, "name": "STARLINK-36228", "group": "last-30-days", "lat": 5.872368883025811, "lon": -140.61039176862639, "alt_km": 319.76790168964453, "timestamp": "2025-12-24T05:51:18.329247+00:00", "meta": {"OBJECT_NAME": "STARLINK-36228", "OBJECT_ID": "2025-298X", "EPOCH": "2025-12-23T22:00:01.999584", "MEAN_MOTION": 15.85647863, "ECCENTRICITY": 0.00039344, "INCLINATION": 69.9959, "RA_OF_ASC_NODE": 218.1827, "ARG_OF_PERICENTER": 272.8865, "MEAN_ANOMALY": 26.5709, "EPHEMERIS_TYPE": 0, "CLASSIFICATION_TYPE": "U", "NORAD_CAT_ID": 67096, "ELEMENT_SET_NO": 999, "REV_AT_EPOCH": 271, "BSTAR": -0.0080449778, "MEAN_MOTION_DOT": -0.01698279, "MEAN_MOTION_DDOT": 0}, "tle": {"line1": "1 67096U 25298X   25357.91668981 -.01698279  00000+0 -80450-2 0  9996", "line2": "2 67096  69.9959 218.1827 0003934 272.8865  26.5709 15.85647863  2715"}}, "geometry": {"type": "Point", "coordinates": [-140.61039176862639, 5.872368883025811]}}, {"type": "Feature", "properties": {"norad_id": 67097, "name": "STARLINK-36222", "group": "last-30-days", "lat": 7.76037106407948, "lon": -139.91456758773168, "alt_km": 319.5566022838857, "timestamp": "2025-12-24T05:51:18.329259+00:00", "meta": {"OBJECT_NAME": "STARLINK-36222", "OBJECT_ID": "2025-298Y", "EPOCH": "2025-12-23T22:00:01.999584", "MEAN_MOTION": 15.85645045, "ECCENTRICITY": 0.00038655, "INCLINATION": 69.9957, "RA_OF_ASC_NODE": 218.1801, "ARG_OF_PERICENTER": 273.6785, "MEAN_ANOMALY": 27.7945, "EPHEMERIS_TYPE": 0, "CLASSIFICATION_TYPE": "U", "NORAD_CAT_ID": 67097, "ELEMENT_SET_NO": 999, "REV_AT_EPOCH": 271, "BSTAR": -0.0080579152, "MEAN_MOTION_DOT": -0.01700356, "MEAN_MOTION_DDOT": 0}, "tle": {"line1": "1 67097U 25298Y   25357.91668981 -.01700356  00000+0 -80579-2 0  9999", "line2": "2 67097  69.9957 218.1801 0003865 273.6785  27.7945 15.85645045  2714"}}, "geometry": {"type": "Point", "coordinates": [-139.91456758773168, 7.76037106407948]}}, {"type": "Feature", "properties": {"norad_id": 67098, "name": "STARLINK-36205", "group": "last-30-days", "lat": 9.813311047595912, "lon": -139.1499250596886, "alt_km": 319.5111772182563, "timestamp": "2025-12-24T05:51:18.329269+00:00", "meta": {"OBJECT_NAME": "STARLINK-36205", "OBJECT_ID": "2025-298Z", "EPOCH": "2025-12-23T22:00:01.999584", "MEAN_MOTION": 15.856375, "ECCENTRICITY": 0.0003868, "INCLINATION": 69.9956, "RA_OF_ASC_NODE": 218.1776, "ARG_OF_PERICENTER": 270.7167, "MEAN_ANOMALY": 32.9534, "EPHEMERIS_TYPE": 0, "CLASSIFICATION_TYPE": "U", "NORAD_CAT_ID": 67098, "ELEMENT_SET_NO": 999, "REV_AT_EPOCH": 277, "BSTAR": -0.0080663025, "MEAN_MOTION_DOT": -0.01701349, "MEAN_MOTION_DDOT": 0}, "tle": {"line1": "1 67098U 25298Z   25357.91668981 -.01701349  00000+0 -80663-2 0  9997", "line2": "2 67098  69.9956 218.1776 0003868 270.7167  32.9534 15.85637500  2775"}}, "geometry": {"type": "Point", "coordinates": [-139.1499250596886, 9.813311047595912]}}, {"type": "Feature", "properties": {"norad_id": 67099, "name": "STARLINK-36193", "group": "last-30-days", "lat": 13.05185558663338, "lon": -137.9221771571574, "alt_km": 319.73888227497446, "timestamp": "2025-12-24T05:51:18.329278+00:00", "meta": {"OBJECT_NAME": "STARLINK-36193", "OBJECT_ID": "2025-298AA", "EPOCH": "2025-12-23T22:00:01.999584", "MEAN_MOTION": 15.8578766, "ECCENTRICITY": 0.00039769, "INCLINATION": 69.9956, "RA_OF_ASC_NODE": 218.1734, "ARG_OF_PERICENTER": 271.2397, "MEAN_ANOMALY": 35.9296, "EPHEMERIS_TYPE": 0, "CLASSIFICATION_TYPE": "U", "NORAD_CAT_ID": 67099, "ELEMENT_SET_NO": 999, "REV_AT_EPOCH": 271, "BSTAR": -0.010481528, "MEAN_MOTION_DOT": -0.02193721, "MEAN_MOTION_DDOT": 0}, "tle": {"line1": "1 67099U 25298AA  25357.91668981 -.02193721  00000+0 -10482-1 0  9999", "line2": "2 67099  69.9956 218.1734 0003976 271.2397  35.9296 15.85787660  2716"}}, "geometry": {"type": "Point", "coordinates": [-137.9221771571574, 13.05185558663338]}}]}